349P/Lemmon,e,5.4909,331.7446,256.0090,3.574217,0.1458588,0.29868685,228.1962,12/06.0/2021,2000,g 14.0,4.0
# From MPC111775
350P/McNaught,e,7.3595,65.3130,139.8866,4.088805,0.1192091,0.09211179,173.2982,12/06.0/2021,2000,g 14.0,4.0
# From MPC105244
351P/Wiegert-PANSTARRS,e,12.7848,283.4438,352.6825,4.438075,0.1054174,0.29560021,232.8567,12/06.0/2021,2000,g 12.5,4.0
# From MPC110086
352P/Skiff,e,21.0104,28.0364,309.2510,6.640316,0.0575998,0.61820549,93.7250,12/06.0/2021,2000,g 11.5,4.0
# From MPEC 2020-AA5
353P/McNaught,e,28.4206,121.5550,230.4081,4.171003,0.1157027,0.47030385,167.1376,12/06.0/2021,2000,g 14.5,4.0
# From MPC105545
354P/LINEAR,e,5.2556,320.1283,132.8969,2.289326,0.2845394,0.12570931,167.2953,12/06.0/2021,2000,g 15.5,4.0
# From MPEC 2020-AA5
355P/LINEAR-NEAT,e,11.0427,51.4296,336.2673,3.471040,0.1524104,0.50749389,230.8085,12/06.0/2021,2000,g 15.5,2.0
# From MPEC 2021-F20
356P/WISE,e,9.6380,160.7978,225.9917,4.158672,0.1162177,0.35537179,168.3896,12/06.0/2021,2000,g 14.0,4.0
# From MPC114609
357P/Hill,e,6.3133,44.5626,1.3873,4.459538,0.1046573,0.43515409,134.6476,12/06.0/2021,2000,g 15.5,4.0
# From MPEC 2020-HN5
358P/PANSTARRS,e,11.0591,85.7033,299.7509,3.147003,0.1765462,0.23869243,235.4863,12/06.0/2021,2000,g 18.0,4.0
# From MPC110086
359P/LONEOS,e,10.2676,149.7558,200.1930,4.639742,0.0986196,0.32420684,154.5095,12/06.0/2021,2000,g 13.5,4.0
# From MPC108599
360P/WISE,e,24.1098,2.1908,354.1476,3.701524,0.1383991,0.49912078,217.1087,12/06.0/2021,2000,g 19.5,6.0
# From MPC114609
361P/Spacewatch,e,13.8969,203.2513,219.0237,4.937380,0.0898378,0.43837196,112.5216,12/06.0/2021,2000,g 12.0,4.0
# From MPEC 2017-V13
362P/,e,15.5562,192.5559,53.6884,3.969897,0.1246049,0.27913974,240.6754,12/06.0/2021,2000,g 12.9,2.0
# From MPC114609
363P/Lemmon,e,5.4113,146.8841,341.1952,3.557765,0.1468717,0.52272153,202.5400,12/06.0/2021,2000,g 17.5,4.0
# From MPEC 2021-F20
364P/PANSTARRS,e,12.1368,46.1748,212.0167,2.879558,0.2017044,0.72201125,254.3171,12/06.0/2021,2000,g 17.0,2.0
# From MPC111775
365P/PANSTARRS,e,9.8200,86.9518,66.7054,3.171267,0.1745239,0.57922181,242.5593,12/06.0/2021,2000,g 17.0,4.0
# From MPC114610
366P/Spacewatch,e,8.8580,70.7618,153.1126,3.496142,0.1507719,0.34809625,186.1856,12/06.0/2021,2000,g 15.0,4.0
# From MPC112395
367P/Catalina,e,8.4612,58.7220,172.8829,3.506363,0.1501132,0.28000083,189.8568,12/06.0/2021,2000,g 17.5,2.0
# From MPC114610
368P/NEAT,e,15.4808,257.9150,118.8227,5.527683,0.0758384,0.62659695,89.3408,12/06.0/2021,2000,g 14.0,4.0
# From MPC114610
369P/Hill,e,10.3177,47.2913,13.1631,4.383273,0.1074005,0.55474355,123.2498,12/06.0/2021,2000,g 15.0,4.0
# From MPEC 2021-F20
370P/NEAT,e,19.4112,55.0989,356.6809,6.434281,0.0603885,0.61486339,77.0016,12/06.0/2021,2000,g 13.0,4.0
# From MPC114610
371P/LINEAR-Skiff,e,17.3791,67.2804,308.4873,4.180867,0.1152934,0.47686996,133.4712,12/06.0/2021,2000,g 16.0,4.0
# From MPEC 2020-K19
372P/McNaught,e,9.5098,325.8165,27.4187,4.505719,0.1030524,0.15273644,117.4912,12/06.0/2021,2000,g 13.5,4.0
# From MPEC 2021-F20
373P/Rinner,e,13.7645,231.9502,221.0595,3.802624,0.1329165,0.39235464,129.2306,12/06.0/2021,2000,g 14.5,4.0
# From MPC114610
374P/Larson,e,10.7657,7.9131,51.4635,4.972730,0.0888816,0.46279416,94.2193,12/06.0/2021,2000,g 14.0,4.0
# From MPEC 2021-F20
375P/Hill,e,17.3614,359.9501,119.4232,5.553985,0.0753004,0.65857471,81.4116,12/06.0/2021,2000,g 16.0,4.0
# From MPEC 2021-S45
376P/LONEOS,e,1.1863,314.6200,284.5879,5.811377,0.0703535,0.51699324,56.4424,12/06.0/2021,2000,g 12.5,4.0
# From MPEC 2021-N06
377P/Scotti,e,9.0238,226.0629,355.0517,6.708469,0.0567243,0.25203267,29.0403,12/06.0/2021,2000,g  9.5,4.0
# From MPEC 2021-WD8
378P/McNaught,e,19.0460,94.3050,193.8126,6.363132,0.0614041,0.46940302,25.3830,12/06.0/2021,2000,g 12.0,4.0
# From MPC115889
379P/Spacewatch,e,12.4361,183.8216,30.8140,3.517207,0.1494194,0.34092208,128.1697,12/06.0/2021,2000,g 15.0,4.0
# From MPEC 2020-KB7
380P/PANSTARRS,e,8.2665,132.9047,87.4636,4.482889,0.1038406,0.33526996,95.5311,12/06.0/2021,2000,g 12.5,4.0
# From MPEC 2021-J28
381P/LINEAR-Spacewatch,e,28.3776,173.7622,173.2094,7.128357,0.0517869,0.68192259,41.4741,12/06.0/2021,2000,g 17.5,2.0
# From MPEC 2021-WD8
382P/Larson,e,8.1528,173.9948,172.1475,6.481124,0.0597350,0.31836274,354.9229,12/06.0/2021,2000,g  8.0,4.0
# From MPC118844
383P/Christensen,e,12.3224,207.8497,133.7173,3.545908,0.1476090,0.59960945,113.8937,12/06.0/2021,2000,g 18.0,4.0
# From MPEC 2021-S45
384P/Kowalski,e,7.2845,354.2304,37.6162,2.900729,0.1995002,0.61580555,156.8655,12/06.0/2021,2000,g 19.5,4.0
# From MPEC 2021-F20
385P/Hill,e,16.8316,357.0606,44.3226,4.288420,0.1109834,0.40167637,90.2268,12/06.0/2021,2000,g 13.0,4.0
# From MPEC 2021-L04
386P/PANSTARRS,e,15.2296,134.9465,353.1865,4.055364,0.1206867,0.41623160,57.1858,12/06.0/2021,2000,g 14.5,4.0
# From MPEC 2021-J28
387P/Boattini,e,8.9215,259.2978,162.7722,4.797740,0.0937884,0.73629628,77.0601,12/06.0/2021,2000,g 15.0,4.0
# From MPEC 2021-S45
388P/Gibbs,e,23.8753,37.0418,42.3349,5.242818,0.0821026,0.61817281,71.1298,12/06.0/2021,2000,g 13.0,4.0
# From MPEC 2021-S45
390P/Gibbs,e,18.5622,152.2748,232.3585,5.805648,0.0704576,0.70726426,43.9384,12/06.0/2021,2000,g 12.0,4.0
# From MPEC 2021-F20
391P/Kowalski,e,21.2746,124.7337,187.1371,4.680702,0.0973280,0.12045564,131.8756,12/06.0/2021,2000,g  8.0,4.0
# From MPEC 2021-J28
392P/LINEAR,e,4.9311,24.8824,71.9315,6.143488,0.0647264,0.68283300,39.7555,12/06.0/2021,2000,g 14.5,4.0
# From MPEC 2021-BE3
393P/Spacewatch-Hill,e,16.7890,36.4087,328.4210,4.788573,0.0940578,0.12067724,72.5067,12/06.0/2021,2000,g 11.0,4.0
# From MPEC 2020-KB7
394P/PANSTARRS,e,8.5294,98.1252,54.5116,4.331507,0.1093315,0.36766252,80.5631,12/06.0/2021,2000,g 16.0,2.4
# From MPEC 2021-WD8
395P/Catalina-NEAT,e,3.2762,223.6685,89.8453,6.559361,0.0586694,0.38029321,358.5651,12/06.0/2021,2000,g 10.0,4.0
# From MPEC 2020-KB7
396P/,e,5.4363,136.6634,8.5369,6.813771,0.0554144,0.41575969,46.0413,12/06.0/2021,2000,g 12.0,4.0
# From MPEC 2021-O56
397P/Lemmon,e,10.9290,8.1978,14.4635,3.828458,0.1315735,0.40518939,70.3269,12/06.0/2021,2000,g 12.0,4.0
# From MPEC 2021-L04
398P/Boattini,e,11.0153,127.4595,320.2177,3.127718,0.1781816,0.58268503,61.3394,12/06.0/2021,2000,g 15.5,4.0
# From MPEC 2021-WD8
399P/PANSTARRS,e,13.3187,207.1412,214.3055,3.790647,0.1335470,0.44704851,26.3631,12/06.0/2021,2000,g 14.0,4.0
# From MPEC 2020-FB5
400P/PANSTARRS,e,10.9295,176.3923,238.8047,3.560673,0.1466919,0.40928554,43.8387,12/06.0/2021,2000,g 15.5,2.8
# From MPEC 2021-R75
401P/McNaught,e,12.8027,359.8804,309.3675,5.774109,0.0710357,0.57999698,51.8487,12/06.0/2021,2000,g 12.5,4.0
# From MPEC 2021-WD8
402P/LINEAR,e,30.8516,123.0913,326.7365,7.014867,0.0530487,0.43864454,359.5449,12/06.0/2021,2000,g  8.0,4.0
# From MPEC 2021-J28
403P/Catalina,e,12.3216,163.8124,277.6542,5.427737,0.0779428,0.50353499,34.7349,12/06.0/2021,2000,g 12.0,4.0
# From MPEC 2021-WD8
404P/Bressi,e,9.7147,261.1247,164.8829,4.801677,0.0936730,0.13612284,297.2632,12/06.0/2021,2000,g 10.0,4.0
# From MPEC 2021-L04
405P/Lemmon,e,9.3655,3.3150,112.2243,3.607944,0.1438184,0.68912522,49.8621,12/06.0/2021,2000,g 17.5,4.0
# From MPEC 2021-F20
406P/Gibbs,e,1.2135,11.4731,352.3965,3.575202,0.1457986,0.54205897,65.0579,12/06.0/2021,2000,g 17.0,4.0
# From MPEC 2021-F20
407P/PANSTARRS-Fuls,e,4.8854,80.7405,92.8820,3.464413,0.1528479,0.38399515,102.9645,12/06.0/2021,2000,g 14.0,4.0
# From MPEC 2021-WD8
408P/Novichonok-Gerke,e,19.3478,189.4363,226.2721,4.753577,0.0950984,0.27036107,331.2922,12/06.0/2021,2000,g 11.0,4.0
# From MPEC 2021-UA9
409P/LONEOS-Hill,e,17.1189,143.6710,15.1241,6.045005,0.0663146,0.70984572,20.6813,12/06.0/2021,2000,g 14.0,4.0
# From MPEC 2021-W31
410P/NEAT-LINEAR,e,9.3937,139.9805,313.0910,6.635169,0.0576668,0.51064490,9.5409,12/06.0/2021,2000,g 12.5,4.0
# From MPEC 2021-J28
411P/Christensen,e,12.3781,77.6654,46.6562,5.816760,0.0702558,0.58079995,22.1751,12/06.0/2021,2000,g 13.5,4.0
# From MPEC 2021-F20
412P/WISE,e,8.9312,0.8477,155.9220,3.109449,0.1797541,0.47970754,65.7293,12/06.0/2021,2000,g 17.0,4.0
# From MPEC 2021-O56
413P/Larson,e,15.9784,39.0253,186.0479,3.709993,0.1379255,0.42320083,19.1405,12/06.0/2021,2000,g 14.0,4.0
# From MPEC 2021-BE3
414P/STEREO,e,23.3846,257.7894,210.7263,2.794220,0.2110149,0.81162585,66.3924,12/06.0/2021,2000,g 19.0,4.0
# From MPEC 2021-N06
415P/Tenagra,e,31.7921,160.2949,346.2114,4.114962,0.1180743,0.19471563,34.7260,12/06.0/2021,2000,g 12.0,4.0
# From MPEC 2021-L04
416P/Scotti,e,3.3613,355.8121,134.4918,4.012488,0.1226262,0.45430329,36.0022,12/06.0/2021,2000,g 15.5,4.0
# From MPEC 2021-W31
417P/NEOWISE,e,8.1290,111.3409,129.4809,3.350278,0.1607248,0.55470349,36.6086,12/06.0/2021,2000,g 16.5,4.0
# From MPEC 2021-L04
418P/LINEAR,e,5.7975,277.6570,307.1010,5.079259,0.0861001,0.66473573,4.2563,12/06.0/2021,2000,g 13.0,4.0
# From MPEC 2021-S45
419P/PANSTARRS,e,2.8029,40.3899,187.5015,3.520757,0.1491936,0.27763808,5.8989,12/06.0/2021,2000,g 12.5,4.0
# From MPEC 2021-S45
420P/Hill,e,14.5032,173.9566,157.1217,5.523991,0.0759145,0.49523533,347.2726,12/06.0/2021,2000,g 11.5,4.0
# From MPEC 2021-W31
421P/McNaught,e,10.0800,55.3487,259.8281,5.075520,0.0861952,0.67554794,27.0802,12/06.0/2021,2000,g 14.0,4.0
# From MPEC 2021-W31
422P/Christensen,e,39.5344,36.0559,305.1517,6.320604,0.0620249,0.50871759,357.5906,12/06.0/2021,2000,g 11.0,4.0
# From MPEC 2021-N06
423P/Lemmon,e,8.3461,33.3095,80.3808,6.164964,0.0643885,0.12067828,4.9813,12/06.0/2021,2000,g 10.0,4.0
# From MPEC 2021-WD8
424P/LaSagra,e,8.6855,51.1780,312.4744,4.414583,0.1062599,0.69131828,3.7580,12/06.0/2021,2000,g 17.0,4.0
# From MPEC 2021-WD8
425P/Kowalski,e,16.4210,210.0873,200.7382,6.329856,0.0618890,0.54341833,4.7387,12/06.0/2021,2000,g 12.0,4.0
# From MPEC 2021-WD8
428P/Gibbs,e,8.5151,299.3355,36.8153,3.484277,0.1515427,0.51953794,31.1167,12/06.0/2021,2000,g 15.0,4.0
# From MPEC 2021-WD8
429P/LINEAR-Hill,e,7.5220,322.0738,75.5321,3.551158,0.1472818,0.49137010,356.0042,12/06.0/2021,2000,g 15.5,4.0
# From MPEC 2021-W31
